NORAD_CAT_ID,OBJECT_NAME,OBJECT_TYPE,EPOCH,MEAN_MOTION,ECCENTRICITY,INCLINATION,RA_OF_ASC_NODE,ARG_OF_PERICENTER,MEAN_ANOMALY,BSTAR,MEAN_MOTION_DOT,MEAN_MOTION_DDOT,TLE_LINE0,TLE_LINE1,TLE_LINE2,SEMIMAJOR_AXIS,PERIOD,APOGEE,PERIGEE,DECAYED
50198.0,STARLINK-3264,PAYLOAD,2022-04-09 22:00:00,15.14451372,0.0001647,53.2174,177.672,47.544,82.4722,-0.041759,-0.00723322,0.0,0 STARLINK-3264,1 50198U 21125AU  22099.91667824 -.00723322  00000-0 -41759-1 0  9997,2 50198  53.2174 177.6720 0001647  47.5440  82.4722 15.14451372  3651,6900.781999999997,95.084,523.783,521.51,0.0
50198.0,STARLINK-3264,PAYLOAD,2022-04-10 06:00:02,15.13940531,0.0002024,53.2176,176.16400000000004,36.6878,111.4183,-0.042253,-0.00721536,0.0,0 STARLINK-3264,1 50198U 21125AU  22100.25002315 -.00721536  00000-0 -42253-1 0  9990,2 50198  53.2176 176.1640 0002024  36.6878 111.4183 15.13940531 20463,6902.334,95.116,525.596,522.802,0.0
50198.0,STARLINK-3264,PAYLOAD,2022-04-10 14:00:01,15.13430273,0.000201,53.2175,174.6596,38.4027,127.0528,-0.042874,-0.00721651,0.0,0 STARLINK-3264,1 50198U 21125AU  22100.58334491 -.00721651  00000-0 -42874-1 0  9996,2 50198  53.2175 174.6596 0002010  38.4027 127.0528 15.13430273  3640,6903.885,95.148,527.138,524.363,0.0
50198.0,STARLINK-3264,PAYLOAD,2022-04-10 22:00:00,15.12921565,0.0001865,53.2174,173.1531,42.471,139.7854,-0.043599,-0.00723275,0.0,0 STARLINK-3264,1 50198U 21125AU  22100.91667824 -.00723275  00000-0 -43599-1 0  9991,2 50198  53.2174 173.1531 0001865  42.4710 139.7854 15.12921565  3654,6905.433000000001,95.18,528.586,526.01,0.0
50198.0,STARLINK-3264,PAYLOAD,2022-04-11 06:00:00,15.12410657,0.0002035,53.2177,171.6491,37.694,160.7506,-0.044112,-0.00721504,0.0,0 STARLINK-3264,1 50198U 21125AU  22101.25001157 -.00721504  00000-0 -44112-1 0  9995,2 50198  53.2177 171.6491 0002035  37.6940 160.7506 15.12410657 20614,6906.988,95.212,530.258,527.447,0.0
50198.0,STARLINK-3264,PAYLOAD,2022-04-11 14:00:01,15.11899249,0.0002168,53.2175,170.148,34.7957,179.2236,-0.044614,-0.00719495,0.0,0 STARLINK-3264,1 50198U 21125AU  22101.58334491 -.00719495  00000-0 -44614-1 0  9994,2 50198  53.2175 170.1480 0002168  34.7957 179.2236 15.11899249  3643,6908.545,95.244,531.908,528.9119999999998,0.0
50198.0,STARLINK-3264,PAYLOAD,2022-04-11 22:00:00,15.11391732,0.0001720999999999,53.2175,168.6449,48.4485,180.5331,-0.045511,-0.00723295,0.0,0 STARLINK-3264,1 50198U 21125AU  22101.91667824 -.00723295  00000-0 -45511-1 0  9990,2 50198  53.2175 168.6449 0001721  48.4485 180.5331 15.11391732  3636,6910.092,95.276,533.146,530.768,0.0
50198.0,STARLINK-3264,PAYLOAD,2022-04-12 06:00:02,15.10880769,0.0001797,53.2177,167.1446,45.7997,197.5946,-0.04604,-0.00721497,0.0,0 STARLINK-3264,1 50198U 21125AU  22102.25002315 -.00721497  00000-0 -46040-1 0  9996,2 50198  53.2177 167.1446 0001797  45.7997 197.5946 15.10880769 20765,6911.65,95.309,534.757,532.273,0.0
50198.0,STARLINK-3264,PAYLOAD,2022-04-12 14:00:01,15.10368832,0.0001832,53.2176,165.64700000000005,44.7265,212.3414,-0.046484,-0.00718395,0.0,0 STARLINK-3264,1 50198U 21125AU  22102.58334491 -.00718395  00000-0 -46484-1 0  9990,2 50198  53.2176 165.6470 0001832  44.7265 212.3414 15.10368832  3636,6913.2109999999975,95.341,536.3430000000002,533.81,0.0
50198.0,STARLINK-3264,PAYLOAD,2022-04-12 22:00:00,15.09788342,0.0001774,53.2179,164.1459,39.3589,230.8699,-0.040359,-0.00619926,0.0,0 STARLINK-3264,1 50198U 21125AU  22102.91667824 -.00619926  00000-0 -40359-1 0  9991,2 50198  53.2179 164.1459 0001774  39.3589 230.8699 15.09788342  3601,6914.983,95.378,538.075,535.621,0.0
50198.0,STARLINK-3264,PAYLOAD,2022-04-13 14:00:03,15.08974783,0.000175,53.2183,161.1509,41.6986,253.0748,-0.01891,-0.0029039,0.0,0 STARLINK-3264,1 50198U 21125AU  22103.58336806 -.00290390  00000-0 -18910-1 0  9996,2 50198  53.2183 161.1509 0001750  41.6986 253.0748 15.08974783 20965,6917.468000000003,95.429,540.544,538.123,0.0
50198.0,STARLINK-3264,PAYLOAD,2022-04-13 22:00:00,15.08644603,0.0001781999999999,53.2181,159.6553,43.2386,263.068,0.017708,0.00291857,0.0,0 STARLINK-3264,1 50198U 21125AU  22103.91667824  .00291857  00000-0  17708-1 0  9991,2 50198  53.2181 159.6553 0001782  43.2386 263.0680 15.08644603 21019,6918.478,95.45,541.576,539.11,0.0
50198.0,STARLINK-3264,PAYLOAD,2022-04-14 08:00:01,15.08887472,0.0001740999999999,53.2182,157.7792,42.0095,8.8106,-0.0049339,-0.00078063,0.0,0 STARLINK-3264,1 50198U 21125AU  22104.33334491 -.00078063  00000-0 -49339-2 0  9999,2 50198  53.2182 157.7792 0001741  42.0095   8.8106 15.08887472 21081,6917.735,95.435,540.805,538.396,0.0
50198.0,STARLINK-3264,PAYLOAD,2022-04-14 14:00:01,15.088339,0.0001862,53.218,156.6577,38.6701,290.874,-0.0012747,-0.00020515,0.0,0 STARLINK-3264,1 50198U 21125AU  22104.58334491 -.00020515  00000-0 -12747-2 0  9998,2 50198  53.2180 156.6577 0001862  38.6701 290.8740 15.08833900  3632,6917.899,95.438,541.052,538.476,0.0
50198.0,STARLINK-3264,PAYLOAD,2022-04-14 22:00:00,15.08801004,0.0001761999999999,53.2177,155.1596,44.6623,296.4774,0.0012859,0.00020215,0.0,0 STARLINK-3264,1 50198U 21125AU  22104.91667824  .00020215  00000-0  12859-2 0  9993,2 50198  53.2177 155.1596 0001762  44.6623 296.4774 15.08801004 21169,6918.0,95.44,541.0840000000002,538.646,0.0
50198.0,STARLINK-3264,PAYLOAD,2022-04-15 12:23:31,15.08963073,0.0002062,53.2192,152.466,31.1415,328.97,-0.0016075,-0.00025867,0.0,0 STARLINK-3264,1 50198U 21125AU  22105.51633130 -.00025867  00000-0 -16075-2 0  9997,2 50198  53.2192 152.4660 0002062  31.1415 328.9700 15.08963073 21730,6917.504,95.43,540.7959999999998,537.943,0.0
50198.0,STARLINK-3264,PAYLOAD,2022-04-15 22:00:00,15.08828371,0.0001826,53.2173,150.6705,44.8406,331.037,0.0020056,0.00031765,0.0,0 STARLINK-3264,1 50198U 21125AU  22105.91667824  .00031765  00000-0  20056-2 0  9994,2 50198  53.2173 150.6705 0001826  44.8406 331.0370 15.08828371  3613,6917.916,95.438,541.044,538.518,0.0
50198.0,STARLINK-3264,PAYLOAD,2022-04-16 06:00:00,15.0887586,0.0001875,53.2173,149.1747,44.4354,343.0229,-0.004602,-0.00072861,0.0,0 STARLINK-3264,1 50198U 21125AU  22106.25001157 -.00072861  00000-0 -46020-2 0  9996,2 50198  53.2173 149.1747 0001875  44.4354 343.0229 15.08875860 21378,6917.771,95.435,540.933,538.339,0.0
50198.0,STARLINK-3264,PAYLOAD,2022-04-16 14:00:01,15.08811011,0.0001958,53.2171,147.6795,36.784,2.2771,-5.637e-05,-1.184e-05,0.0,0 STARLINK-3264,1 50198U 21125AU  22106.58334491 -.00001184  00000-0 -56370-4 0  9993,2 50198  53.2171 147.6795 0001958  36.7840   2.2771 15.08811011  3620,6917.969,95.439,541.189,538.479,0.0
50198.0,STARLINK-3264,PAYLOAD,2022-04-16 22:00:01,15.08782357,0.0001751,53.2172,146.1812,39.5725,11.1199,0.0020496,0.00032431,0.0,0 STARLINK-3264,1 50198U 21125AU  22106.91668981  .00032431  00000-0  20496-2 0  9999,2 50198  53.2172 146.1812 0001751  39.5725  11.1199 15.08782357 21475,6918.057,95.441,541.133,538.71,0.0
50198.0,STARLINK-3264,PAYLOAD,2022-04-17 14:00:01,15.08806151,0.0002085,53.2171,143.1903,37.9043,35.822,0.0039925,0.00063769,0.0,0 STARLINK-3264,1 50198U 21125AU  22107.58334491  .00063769  00000-0  39925-2 0  9994,2 50198  53.2171 143.1903 0002085  37.9043  35.8220 15.08806151  3598,6917.984,95.44,541.2909999999998,538.406,0.0
50198.0,STARLINK-3264,PAYLOAD,2022-04-17 22:00:00,15.08824052,0.0001916,53.2174,141.692,43.1157,42.2006,0.0024346,0.00038655,0.0,0 STARLINK-3264,1 50198U 21125AU  22107.91667824  .00038655  00000-0  24346-2 0  9997,2 50198  53.2174 141.6920 0001916  43.1157  42.2006 15.08824052  3583,6917.929,95.439,541.12,538.469,0.0
50198.0,STARLINK-3264,PAYLOAD,2022-04-18 08:00:01,15.08857352,0.0002113,53.2174,139.8228,42.2788,147.5338,-0.00087041,-0.00014121,0.0,0 STARLINK-3264,1 50198U 21125AU  22108.33334491 -.00014121  00000-0 -87041-3 0  9991,2 50198  53.2174 139.8228 0002113  42.2788 147.5338 15.08857352 21680,6917.8269999999975,95.436,541.154,538.231,0.0
50198.0,STARLINK-3264,PAYLOAD,2022-04-18 14:00:01,15.08839958,0.0002173,53.2173,138.7009,39.4374,69.0813,0.0020561,0.00032587,0.0,0 STARLINK-3264,1 50198U 21125AU  22108.58334491  .00032587  00000-0  20561-2 0  9995,2 50198  53.2173 138.7009 0002173  39.4374  69.0813 15.08839958  3621,6917.880999999999,95.438,541.249,538.242,0.0
50198.0,STARLINK-3264,PAYLOAD,2022-04-18 22:00:00,15.08845346,0.0001945,53.2177,137.2026,43.5708,76.5674,0.0015827,0.00024994,0.0,0 STARLINK-3264,1 50198U 21125AU  22108.91667824  .00024994  00000-0  15827-2 0  9993,2 50198  53.2177 137.2026 0001945  43.5708  76.5674 15.08845346  3582,6917.864000000001,95.437,541.075,538.384,0.0
50198.0,STARLINK-3264,PAYLOAD,2022-04-19 06:00:00,15.08866494,0.0002018,53.2178,135.7072,42.4555,89.2963,-0.002897,-0.00046133,0.0,0 STARLINK-3264,1 50198U 21125AU  22109.25001157 -.00046133  00000-0 -28970-2 0  9996,2 50198  53.2178 135.7072 0002018  42.4555  89.2963 15.08866494 21823,6917.799,95.436,541.06,538.268,0.0
50198.0,STARLINK-3264,PAYLOAD,2022-04-19 14:00:01,15.08832613,0.0002126,53.2175,134.2115,38.1217,105.2334,0.0014797,0.00023335,0.0,0 STARLINK-3264,1 50198U 21125AU  22109.58334491  .00023335  00000-0  14797-2 0  9991,2 50198  53.2175 134.2115 0002126  38.1217 105.2334 15.08832613  3624,6917.903,95.438,541.239,538.297,0.0
50198.0,STARLINK-3264,PAYLOAD,2022-04-19 22:00:00,15.08825239,0.0001899,53.2177,132.7135,42.9414,112.0193,0.0026645,0.00042356,0.0,0 STARLINK-3264,1 50198U 21125AU  22109.91667824  .00042356  00000-0  26645-2 0  9996,2 50198  53.2177 132.7135 0001899  42.9414 112.0193 15.08825239 21927,6917.926,95.438,541.104,538.477,0.0
50198.0,STARLINK-3264,PAYLOAD,2022-04-20 14:00:01,15.08860072,0.0002102,53.2176,129.7224,38.9945,139.1668,-0.0014149,-0.00022749,0.0,0 STARLINK-3264,1 50198U 21125AU  22110.58334491 -.00022749  00000-0 -14149-2 0  9994,2 50198  53.2176 129.7224 0002102  38.9945 139.1668 15.08860072 22026,6917.819,95.436,541.138,538.23,0.0
